NORAD_CAT_ID,OBJECT_NAME,OBJECT_TYPE,EPOCH,MEAN_MOTION,ECCENTRICITY,INCLINATION,RA_OF_ASC_NODE,ARG_OF_PERICENTER,MEAN_ANOMALY,BSTAR,MEAN_MOTION_DOT,MEAN_MOTION_DDOT,TLE_LINE0,TLE_LINE1,TLE_LINE2,SEMIMAJOR_AXIS,PERIOD,APOGEE,PERIGEE,DECAYED
50851.0,STARLINK-3314,PAYLOAD,2024-02-08 06:38:36,15.08839774,0.0001617,53.219,352.6664,103.6102,256.5071,-1.1603e-05,-4.73e-06,0.0,0 STARLINK-3314,1 50851U 22001BA  24039.27681502 -.00000473  00000-0 -11603-4 0  9994,2 50851  53.2190 352.6664 0001617 103.6102 256.5071 15.08839774115477,6917.881,95.438,540.865,538.627,0.0
50851.0,STARLINK-3314,PAYLOAD,2024-02-09 03:18:37,15.08853659,0.0001535,53.2175,348.8073,89.0424,271.0744,0.00029052,4.34e-05,0.0,0 STARLINK-3314,1 50851U 22001BA  24040.13793133  .00004340  00000-0  29052-3 0  9996,2 50851  53.2175 348.8073 0001535  89.0424 271.0744 15.08853659116887,6917.839,95.437,540.766,538.642,0.0
50851.0,STARLINK-3314,PAYLOAD,2024-02-10 03:09:24,15.08859101,0.0001317,53.2181,344.3413,93.2016,266.9127,0.00042057,6.415e-05,0.0,0 STARLINK-3314,1 50851U 22001BA  24041.13153016  .00006415  00000-0  42057-3 0  9992,2 50851  53.2181 344.3413 0001317  93.2016 266.9127 15.08859101117039,6917.822,95.436,540.598,538.776,0.0
50851.0,STARLINK-3314,PAYLOAD,2024-02-11 04:35:34,15.0884469,0.0001373,53.2181,339.5925,120.2384,239.8744,4.9184e-06,-2.1e-06,0.0,0 STARLINK-3314,1 50851U 22001BA  24042.19137494 -.00000210  00000-0  49184-5 0  9999,2 50851  53.2181 339.5925 0001373 120.2384 239.8744 15.08844690117192,6917.866,95.437,540.681,538.781,0.0
50851.0,STARLINK-3314,PAYLOAD,2024-02-12 04:26:21,15.08848621,0.0001545,53.2181,335.129,82.8009,277.3159,0.00018677,2.686e-05,0.0,0 STARLINK-3314,1 50851U 22001BA  24043.18497488  .00002686  00000-0  18677-3 0  9990,2 50851  53.2181 335.1290 0001545  82.8009 277.3159 15.08848621116067,6917.854,95.437,540.788,538.65,0.0
50851.0,STARLINK-3314,PAYLOAD,2024-02-13 02:41:46,15.08837867,0.0001381,53.2174,330.9692,88.4661,271.6489,0.00010061,1.314e-05,0.0,0 STARLINK-3314,1 50851U 22001BA  24044.11234482  .00001314  00000-0  10061-3 0  9993,2 50851  53.2174 330.9692 0001381  88.4661 271.6489 15.08837867117482,6917.887,95.438,540.707,538.797,0.0
50851.0,STARLINK-3314,PAYLOAD,2024-02-13 12:14:05,15.08837521,0.0001495,53.2172,329.1835,78.7098,281.4062,0.00012403,1.686e-05,0.0,0 STARLINK-3314,1 50851U 22001BA  24044.50978712  .00001686  00000-0  12403-3 0  9991,2 50851  53.2172 329.1835 0001495  78.7098 281.4062 15.08837521116269,6917.888,95.438,540.787,538.719,0.0
50851.0,STARLINK-3314,PAYLOAD,2024-02-14 04:07:56,15.08857592,0.000139,53.2176,326.2069,93.5106,266.6045,0.00044634,6.826e-05,0.0,0 STARLINK-3314,1 50851U 22001BA  24045.17217794  .00006826  00000-0  44634-3 0  9993,2 50851  53.2176 326.2069 0001390  93.5106 266.6045 15.08857592117648,6917.827,95.436,540.653,538.73,0.0
50851.0,STARLINK-3314,PAYLOAD,2024-02-14 12:04:52,15.08840489,0.0001587,53.2179,324.7195,87.5451,272.5723,0.00017038,2.425e-05,0.0,0 STARLINK-3314,1 50851U 22001BA  24045.50338738  .00002425  00000-0  17038-3 0  9991,2 50851  53.2179 324.7195 0001587  87.5451 272.5723 15.08840489117699,6917.879,95.438,540.842,538.646,0.0
50851.0,STARLINK-3314,PAYLOAD,2024-02-15 00:47:57,15.08842068,0.0001743,53.2171,322.3429,84.3253,275.7938,0.00015756,2.221e-05,0.0,0 STARLINK-3314,1 50851U 22001BA  24046.03330860  .00002221  00000-0  15756-3 0  9997,2 50851  53.2171 322.3429 0001743  84.3253 275.7938 15.08842068116499,6917.874,95.437,540.945,538.533,0.0
50851.0,STARLINK-3314,PAYLOAD,2024-02-15 18:17:12,15.08835711,0.0001683,53.2176,319.0713,84.537,275.5814,6.9853e-05,8.24e-06,0.0,0 STARLINK-3314,1 50851U 22001BA  24046.76195348  .00000824  00000-0  69853-4 0  9992,2 50851  53.2176 319.0713 0001683  84.5370 275.5814 15.08835711117880,6917.893,95.438,540.923,538.594,0.0
50851.0,STARLINK-3314,PAYLOAD,2024-02-15 21:27:59,15.0883413,0.0001639,53.2164,318.4755,90.979,269.139,8.6894e-06,-1.5e-06,0.0,0 STARLINK-3314,1 50851U 22001BA  24046.89443381 -.00000150  00000-0  86894-5 0  9997,2 50851  53.2164 318.4755 0001639  90.9790 269.1390 15.08834130116627,6917.898,95.438,540.897,538.629,0.0
50851.0,STARLINK-3314,PAYLOAD,2024-02-16 03:49:31,15.08842193,0.0001582,53.2161,317.2853,95.3616,264.7557,-4.9752e-05,-1.08e-05,0.0,0 STARLINK-3314,1 50851U 22001BA  24047.15938977 -.00001080  00000-0 -49752-4 0  9992,2 50851  53.2161 317.2853 0001582  95.3616 264.7557 15.08842193116661,6917.874,95.437,540.833,538.644,0.0
50851.0,STARLINK-3314,PAYLOAD,2024-02-16 21:18:45,15.08842712,0.0001537,53.2162,314.0144,97.2696,262.8471,0.00019045,2.745e-05,0.0,0 STARLINK-3314,1 50851U 22001BA  24047.88802973  .00002745  00000-0  19045-3 0  9996,2 50851  53.2162 314.0144 0001537  97.2696 262.8471 15.08842712116772,6917.872,95.437,540.8,538.674,0.0
50851.0,STARLINK-3314,PAYLOAD,2024-02-17 00:29:31,15.08849148,0.0001587,53.2165,313.4192,89.0062,271.1112,0.00015207,2.134e-05,0.0,0 STARLINK-3314,1 50851U 22001BA  24048.02050707  .00002134  00000-0  15207-3 0  9991,2 50851  53.2165 313.4192 0001587  89.0062 271.1112 15.08849148118072,6917.852,95.437,540.815,538.62,0.0
50851.0,STARLINK-3314,PAYLOAD,2024-02-17 10:01:50,15.0884955,0.0001461,53.2163,311.6344,103.6652,256.4503,0.00019225,2.774e-05,0.0,0 STARLINK-3314,1 50851U 22001BA  24048.41794496  .00002774  00000-0  19225-3 0  9998,2 50851  53.2163 311.6344 0001461 103.6652 256.4503 15.08849550116859,6917.851,95.437,540.727,538.706,0.0
50851.0,STARLINK-3314,PAYLOAD,2024-02-17 17:58:46,15.08844206,0.0002322,53.2163,310.1485,81.1146,279.0109,0.00019355,2.794e-05,0.0,0 STARLINK-3314,1 50851U 22001BA  24048.74915161  .00002794  00000-0  19355-3 0  9994,2 50851  53.2163 310.1485 0002322  81.1146 279.0109 15.08844206118188,6917.868,95.437,541.339,538.126,0.0
50851.0,STARLINK-3314,PAYLOAD,2024-02-17 22:44:56,15.08838006,0.0001528,53.2174,309.258,88.1188,271.9979,5.2842e-05,5.53e-06,0.0,0 STARLINK-3314,1 50851U 22001BA  24048.94787311  .00000553  00000-0  52842-4 0  9990,2 50851  53.2174 309.2580 0001528  88.1188 271.9979 15.08838006116933,6917.886,95.438,540.809,538.694,0.0
50851.0,STARLINK-3314,PAYLOAD,2024-02-18 09:52:38,15.08841757,0.0001642,53.2179,307.1717,82.4339,277.684,0.00012508,1.703e-05,0.0,0 STARLINK-3314,1 50851U 22001BA  24049.41155150  .00001703  00000-0  12508-3 0  9995,2 50851  53.2179 307.1717 0001642  82.4339 277.6840 15.08841757117005,6917.875,95.437,540.876,538.604,0.0
50851.0,STARLINK-3314,PAYLOAD,2024-02-18 19:24:56,15.08845276,0.0001665,53.218,305.3873,92.0786,268.0397,-7.2887e-06,-4.04e-06,0.0,0 STARLINK-3314,1 50851U 22001BA  24049.80898996 -.00000404  00000-0 -72887-5 0  9997,2 50851  53.2180 305.3873 0001665  92.0786 268.0397 15.08845276118347,6917.864,95.437,540.881,538.577,0.0
50851.0,STARLINK-3314,PAYLOAD,2024-02-18 22:35:42,15.08849352,0.0001392,53.216,304.7947,91.6915,268.4236,0.00031098,4.666e-05,0.0,0 STARLINK-3314,1 50851U 22001BA  24049.94146881  .00004666  00000-0  31098-3 0  9990,2 50851  53.2160 304.7947 0001392  91.6915 268.4236 15.08849352117081,6917.852,95.437,540.68,538.754,0.0
50851.0,STARLINK-3314,PAYLOAD,2024-02-19 09:43:24,15.0885355,0.0001295,53.2155,302.7167,87.7191,272.3949,0.00052492,8.079e-05,0.0,0 STARLINK-3314,1 50851U 22001BA  24050.40514693  .00008079  00000-0  52492-3 0  9996,2 50851  53.2155 302.7167 0001295  87.7191 272.3949 15.08853550117159,6917.839,95.437,540.6,538.808,0.0
50851.0,STARLINK-3314,PAYLOAD,2024-02-19 22:26:30,15.0882894,0.0002019,53.2187,300.3364,89.5823,270.54,-0.00017233,-3.029e-05,0.0,0 STARLINK-3314,1 50851U 22001BA  24050.93507508 -.00003029  00000-0 -17233-3 0  9997,2 50851  53.2187 300.3364 0002019  89.5823 270.5400 15.08828940117230,6917.914,95.438,541.176,538.382,0.0
50851.0,STARLINK-3314,PAYLOAD,2024-02-20 01:37:16,15.08836234,0.0001644,53.2165,299.7411,81.4302,278.6877,3.0265e-05,1.94e-06,0.0,0 STARLINK-3314,1 50851U 22001BA  24051.06755446  .00000194  00000-0  30265-4 0  9997,2 50851  53.2165 299.7411 0001644  81.4302 278.6877 15.08836234118532,6917.892,95.438,540.894,538.62,0.0
50851.0,STARLINK-3314,PAYLOAD,2024-02-20 09:34:12,15.0883758,0.0001572,53.2162,298.2548,86.3056,273.8116,8.7706e-05,1.108e-05,0.0,0 STARLINK-3314,1 50851U 22001BA  24051.39875430  .00001108  00000-0  87706-4 0  9997,2 50851  53.2162 298.2548 0001572  86.3056 273.8116 15.08837580117306,6917.888,95.438,540.84,538.665,0.0
50851.0,STARLINK-3314,PAYLOAD,2024-02-20 22:17:17,15.08847058,0.0001571,53.2154,295.8758,84.5095,275.6076,0.00033021,4.972e-05,0.0,0 STARLINK-3314,1 50851U 22001BA  24051.92867250  .00004972  00000-0  33021-3 0  9999,2 50851  53.2154 295.8758 0001571  84.5095 275.6076 15.08847058117389,6917.859,95.437,540.811,538.637,0.0
50851.0,STARLINK-3314,PAYLOAD,2024-02-20 23:52:40,15.08847913,0.0001574,53.2154,295.5785,84.2696,275.8476,0.00062357,9.652e-05,0.0,0 STARLINK-3314,1 50851U 22001BA  24051.99491372  .00009652  00000-0  62357-3 0  9998,2 50851  53.2154 295.5785 0001574  84.2696 275.8476 15.08847913118672,6917.856,95.437,540.81,538.632,0.0
50851.0,STARLINK-3314,PAYLOAD,2024-02-21 09:24:59,15.08849993,0.0001613,53.2155,293.7948,83.3568,276.7608,0.00048216,7.396e-05,0.0,0 STARLINK-3314,1 50851U 22001BA  24052.39235263  .00007396  00000-0  48216-3 0  9999,2 50851  53.2155 293.7948 0001613  83.3568 276.7608 15.08849993117458,6917.85,95.437,540.831,538.599,0.0
50851.0,STARLINK-3314,PAYLOAD,2024-02-21 15:46:31,15.08847572,0.0001577,53.2148,292.6065,83.0798,277.0374,0.00029269,4.374e-05,0.0,0 STARLINK-3314,1 50851U 22001BA  24052.65731210  .00004374  00000-0  29269-3 0  9991,2 50851  53.2148 292.6065 0001577  83.0798 277.0374 15.08847572118770,6917.857,95.437,540.813,538.631,0.0
50851.0,STARLINK-3314,PAYLOAD,2024-02-21 22:08:04,15.08846694,0.0001539,53.2145,291.4152,91.0493,269.0676,0.00020125,2.917e-05,0.0,0 STARLINK-3314,1 50851U 22001BA  24052.92227121  .00002917  00000-0  20125-3 0  9995,2 50851  53.2145 291.4152 0001539  91.0493 269.0676 15.08846694117533,6917.86,95.437,540.79,538.66,0.0
